
STRATOSAT-TK 1 (RS52S)  
1 57167U 23091B   25033.21159160  .00050167  00000+0  18168-2 0  9993
2 57167  97.5753  93.5729 0011711  43.9543 316.2626 15.28157504 88480
UMKA 1 (RS40S)          
1 57172U 23091G   25033.20193093  .00012381  00000+0  70476-3 0  9998
2 57172  97.5788  89.3250 0016472  57.2590 303.0226 15.12865274 88208
CUBESX-HSE 3 (RS42S)    
1 57178U 23091N   25033.17953137  .00020076  00000+0  10229-2 0  9992
2 57178  97.5816  90.7006 0015722  48.4897 311.7682 15.16705904 88276
MONITOR-3 (RS58S)       
1 57180U 23091Q   25033.15176672  .00016676  00000+0  87933-3 0  9992
2 57180  97.5814  90.2289 0016358  50.2856 309.9815 15.15525679 88249
MONITOR-4 (RS57S)       
1 57182U 23091S   25033.15157321  .00017698  00000+0  93207-3 0  9990
2 57182  97.5809  90.1879 0016414  50.8348 309.4340 15.15555190 88243
MONITOR-2 (RS39S)       
1 57184U 23091U   25033.20114059  .00010374  00000+0  60188-3 0  9995
2 57184  97.5817  89.7084 0014141  48.3553 311.8885 15.12256479 88214
SVYATOBOR 1 (RS60S)     
1 57187U 23091X   25033.18699774  .00015757  00000+0  82787-3 0  9996
2 57187  97.5814  90.9627 0012842  42.7839 317.4390 15.15712875 88293
VIZARD-METEO (RS38S)    
1 57189U 23091Z   25033.20356831  .00021977  00000+0  10498-2 0  9995
2 57189  97.5802  92.1086 0011380  38.5874 321.6171 15.18993068 88374
NANOZOND 1 (RS49S)      
1 57190U 23091AA  25033.16521777  .00038298  00000+0  14599-2 0  9995
2 57190  97.5765  94.1035 0008824  37.6871 322.4983 15.26558265 88517
POLYTECH-UNIVERSE 3 (R*)
1 57191U 23091AB  25033.14005708  .00010868  00000+0  62835-3 0  9995
2 57191  97.5787  89.2328 0019292  62.9525 297.3672 15.12297006 88197
UTMN 2 (RS27S)          
1 57203U 23091AP  25033.18414837  .00019357  00000+0  95835-3 0  9998
2 57203  97.5803  91.6697 0011845  39.3826 320.8266 15.17767396 88341
ARCCUBE 1 (RS25S)       
1 57205U 23091AR  25033.16448198  .00052002  00000+0  17158-2 0  9990
2 57205  97.5704  94.9604 0008205  35.3815 324.7968 15.31215205 88588
KUZGTU 1 (RS47S)        
1 57217U 23091AV  25033.22777373  .00019783  00000+0  10200-2 0  9990
2 57217  97.5794  90.4465 0015819  50.0394 310.2225 15.16290054 88271
SONATE-2                
1 59112U 24043Q   25032.79994272  .00027689  00000+0  97486-3 0  9990
2 59112  97.4966 162.1560 0011783 206.0974 153.9673 15.29218460 50760
MESAT1                  
1 60209U 24125G   25033.03467321  .00030632  00000+0  10646-2 0  9992
2 60209  97.2944 246.5059 0020313 232.8360 127.1026 15.29485623 32412
OOV-CUBE (TUBSAT-30)    
1 60240U 24128F   25032.84518251  .00006096  00000+0  51025-3 0  9991
2 60240  61.9969 165.6248 0036927  23.6496 336.6280 14.98963034 31002
COLIBRI-S (RS67S)       
1 61746U 24199M   25033.16319359  .00024622  00000+0  91155-3 0  9998
2 61746  97.3768 262.8435 0011968 279.3482  80.6404 15.27589307 60607
HORS 3 (RS81S)          
1 61753U 24199U   25033.16060777  .00029299  00000+0  10730-2 0  9997
2 61753  97.3740 262.8164 0010522 289.1419  70.8681 15.27926907 60607
HORS 4 (RS82S)          
1 61754U 24199V   25033.14780444  .00030105  00000+0  10895-2 0  9996
2 61754  97.3737 262.8317 0010595 289.7712  70.2385 15.28310798 60607
HORIZON (RS59S)         
1 61757U 24199Y   25033.18100953  .00040125  00000+0  14044-2 0  9997
2 61757  97.3763 262.9691 0011533 278.1328  81.8604 15.29332547 60613
SIT-2086                
1 61764U 24199AF  25033.17818811  .00032538  00000+0  11527-2 0  9995
2 61764  97.3741 262.9453 0008973 290.5421  69.4856 15.29009155 57454
MORDOVIA-IOT (RS50S)    
1 61765U 24199AG  25033.19457733  .00047418  00000+0  15840-2 0  9995
2 61765  97.3760 263.1026 0011068 274.6015  85.3962 15.30813391 57470
RUZAEVKA 390 (RS44S)    
1 61766U 24199AH  25033.20304820  .00042966  00000+0  14531-2 0  9995
2 61766  97.3759 263.0882 0010949 273.8881  86.1108 15.30439311 57474
HYPERVIEW 1G (RS66S)    
1 61772U 24199AP  25033.18051944  .00036419  00000+0  13259-2 0  9997
2 61772  97.3736 262.7875 0014572 291.5433  68.4253 15.28025507 57457
ALTAIR (RS65S)          
1 61779U 24199AW  25033.18486630  .00018372  00000+0  72303-3 0  9992
2 61779  97.3746 262.6386 0015262 291.8876  68.0739 15.25578452 60595
ASRTU-1 (AO-123)        
1 61781U 24199AY  25033.19572647  .00017020  00000+0  67369-3 0  9995
2 61781  97.3744 262.6241 0015451 291.9929  67.9668 15.25398440 57442
TUSUR GO (RS78S)        
1 61782U 24199AZ  25033.19990080  .00040276  00000+0  14728-2 0  9990
2 61782  97.3734 262.7643 0015519 291.0415  68.9165 15.27843873 57456
SAMSAT-IONOSPHERE (RS7*)
1 61784U 24199BB  25033.21486969  .00030480  00000+0  11417-2 0  9999
2 61784  97.3741 262.7456 0015500 291.2581  68.7002 15.27112233 60602
RTU MIREA 1 (RS51S)     
1 61785U 24199BC  25033.21129258  .00031758  00000+0  11844-2 0  9998
2 61785  97.3740 262.7504 0015365 290.8168  69.1425 15.27249304 57454
